[{"OBJECT_NAME":"KUIPER-00160","OBJECT_ID":"2026-030B","EPOCH":"2026-03-14T17:01:56.389152","MEAN_MOTION":15.35856017,"ECCENTRICITY":0.0005429,"INCLINATION":51.8814,"RA_OF_ASC_NODE":194.9672,"ARG_OF_PERICENTER":67.8682,"MEAN_ANOMALY":292.288,"EPHEMERIS_TYPE":0,"CLASSIFICATION_TYPE":"U","NORAD_CAT_ID":67765,"ELEMENT_SET_NO":999,"REV_AT_EPOCH":586,"BSTAR":0.0010408013,"MEAN_MOTION_DOT":0.00036683,"MEAN_MOTION_DDOT":0},{"OBJECT_NAME":"KUIPER-00177","OBJECT_ID":"2026-030C","EPOCH":"2026-03-15T06:00:00.999648","MEAN_MOTION":15.26298808,"ECCENTRICITY":0.0002247,"INCLINATION":51.8849,"RA_OF_ASC_NODE":192.3718,"ARG_OF_PERICENTER":26.0987,"MEAN_ANOMALY":60.2182,"EPHEMERIS_TYPE":0,"CLASSIFICATION_TYPE":"U","NORAD_CAT_ID":67766,"ELEMENT_SET_NO":999,"REV_AT_EPOCH":584,"BSTAR":0.0026542049,"MEAN_MOTION_DOT":0.00070155,"MEAN_MOTION_DDOT":0},{"OBJECT_NAME":"KUIPER-00178","OBJECT_ID":"2026-030D","EPOCH":"2026-03-15T06:00:00.999648","MEAN_MOTION":15.30155975,"ECCENTRICITY":0.00077325,"INCLINATION":51.884,"RA_OF_ASC_NODE":192.4934,"ARG_OF_PERICENTER":62.9826,"MEAN_ANOMALY":351.3794,"EPHEMERIS_TYPE":0,"CLASSIFICATION_TYPE":"U","NORAD_CAT_ID":67767,"ELEMENT_SET_NO":999,"REV_AT_EPOCH":522,"BSTAR":0.0022563842,"MEAN_MOTION_DOT":0.00067091,"MEAN_MOTION_DDOT":0},{"OBJECT_NAME":"KUIPER-00180","OBJECT_ID":"2026-030E","EPOCH":"2026-03-14T18:28:30.455616","MEAN_MOTION":15.30156383,"ECCENTRICITY":0.00152026,"INCLINATION":51.88,"RA_OF_ASC_NODE":195.3502,"ARG_OF_PERICENTER":84.1385,"MEAN_ANOMALY":276.1331,"EPHEMERIS_TYPE":0,"CLASSIFICATION_TYPE":"U","NORAD_CAT_ID":67768,"ELEMENT_SET_NO":999,"REV_AT_EPOCH":586,"BSTAR":0.00073244509,"MEAN_MOTION_DOT":0.00021452,"MEAN_MOTION_DDOT":0},{"OBJECT_NAME":"KUIPER-00197","OBJECT_ID":"2026-030F","EPOCH":"2026-03-14T15:06:58.842144","MEAN_MOTION":15.36562596,"ECCENTRICITY":0.0001986,"INCLINATION":51.8823,"RA_OF_ASC_NODE":195.1916,"ARG_OF_PERICENTER":53.1453,"MEAN_ANOMALY":306.9715,"EPHEMERIS_TYPE":0,"CLASSIFICATION_TYPE":"U","NORAD_CAT_ID":67769,"ELEMENT_SET_NO":999,"REV_AT_EPOCH":585,"BSTAR":0.0013978104,"MEAN_MOTION_DOT":0.00050615,"MEAN_MOTION_DDOT":0},{"OBJECT_NAME":"KUIPER-00198","OBJECT_ID":"2026-030G","EPOCH":"2026-03-14T15:16:41.210976","MEAN_MOTION":15.36331957,"ECCENTRICITY":0.00039377,"INCLINATION":51.8807,"RA_OF_ASC_NODE":195.228,"ARG_OF_PERICENTER":50.3575,"MEAN_ANOMALY":309.7759,"EPHEMERIS_TYPE":0,"CLASSIFICATION_TYPE":"U","NORAD_CAT_ID":67770,"ELEMENT_SET_NO":999,"REV_AT_EPOCH":585,"BSTAR":0.0017269311,"MEAN_MOTION_DOT":0.00062264,"MEAN_MOTION_DDOT":0},{"OBJECT_NAME":"KUIPER-00199","OBJECT_ID":"2026-030H","EPOCH":"2026-03-15T01:25:24.424608","MEAN_MOTION":15.34622904,"ECCENTRICITY":0.00108656,"INCLINATION":51.8818,"RA_OF_ASC_NODE":193.5503,"ARG_OF_PERICENTER":78.9678,"MEAN_ANOMALY":281.2529,"EPHEMERIS_TYPE":0,"CLASSIFICATION_TYPE":"U","NORAD_CAT_ID":67771,"ELEMENT_SET_NO":999,"REV_AT_EPOCH":591,"BSTAR":0.001105531,"MEAN_MOTION_DOT":0.00037526,"MEAN_MOTION_DDOT":0},{"OBJECT_NAME":"KUIPER-00200","OBJECT_ID":"2026-030J","EPOCH":"2026-03-14T17:56:06.301824","MEAN_MOTION":15.37354089,"ECCENTRICITY":0.00011449,"INCLINATION":51.8816,"RA_OF_ASC_NODE":194.4793,"ARG_OF_PERICENTER":304.1973,"MEAN_ANOMALY":55.8905,"EPHEMERIS_TYPE":0,"CLASSIFICATION_TYPE":"U","NORAD_CAT_ID":67772,"ELEMENT_SET_NO":999,"REV_AT_EPOCH":587,"BSTAR":0.0018266754,"MEAN_MOTION_DOT":0.00068143,"MEAN_MOTION_DDOT":0},{"OBJECT_NAME":"KUIPER-00203","OBJECT_ID":"2026-030K","EPOCH":"2026-03-15T06:00:00.999648","MEAN_MOTION":15.06425306,"ECCENTRICITY":0.00116776,"INCLINATION":51.89,"RA_OF_ASC_NODE":194.3738,"ARG_OF_PERICENTER":80.9606,"MEAN_ANOMALY":59.1962,"EPHEMERIS_TYPE":0,"CLASSIFICATION_TYPE":"U","NORAD_CAT_ID":67773,"ELEMENT_SET_NO":999,"REV_AT_EPOCH":450,"BSTAR":0.002853494,"MEAN_MOTION_DOT":0.00042594,"MEAN_MOTION_DDOT":0},{"OBJECT_NAME":"KUIPER-00205","OBJECT_ID":"2026-030L","EPOCH":"2026-03-14T15:07:46.061472","MEAN_MOTION":15.3665759,"ECCENTRICITY":0.00036762,"INCLINATION":51.8809,"RA_OF_ASC_NODE":195.1897,"ARG_OF_PERICENTER":35.8019,"MEAN_ANOMALY":324.3214,"EPHEMERIS_TYPE":0,"CLASSIFICATION_TYPE":"U","NORAD_CAT_ID":67774,"ELEMENT_SET_NO":999,"REV_AT_EPOCH":585,"BSTAR":0.00075106499,"MEAN_MOTION_DOT":0.00027018,"MEAN_MOTION_DDOT":0},{"OBJECT_NAME":"KUIPER-00208","OBJECT_ID":"2026-030M","EPOCH":"2026-03-14T11:58:33.862656","MEAN_MOTION":15.32134028,"ECCENTRICITY":0.00158957,"INCLINATION":51.8829,"RA_OF_ASC_NODE":196.5494,"ARG_OF_PERICENTER":71.7459,"MEAN_ANOMALY":288.5253,"EPHEMERIS_TYPE":0,"CLASSIFICATION_TYPE":"U","NORAD_CAT_ID":67775,"ELEMENT_SET_NO":999,"REV_AT_EPOCH":582,"BSTAR":0.0011437418,"MEAN_MOTION_DOT":0.00035945,"MEAN_MOTION_DDOT":0},{"OBJECT_NAME":"KUIPER-00209","OBJECT_ID":"2026-030N","EPOCH":"2026-03-14T21:49:18.517440","MEAN_MOTION":15.2958311,"ECCENTRICITY":0.00128592,"INCLINATION":51.8825,"RA_OF_ASC_NODE":194.7882,"ARG_OF_PERICENTER":82.6551,"MEAN_ANOMALY":277.5894,"EPHEMERIS_TYPE":0,"CLASSIFICATION_TYPE":"U","NORAD_CAT_ID":67776,"ELEMENT_SET_NO":999,"REV_AT_EPOCH":588,"BSTAR":-0.00026261754,"MEAN_MOTION_DOT":-8.016e-5,"MEAN_MOTION_DDOT":0},{"OBJECT_NAME":"KUIPER-00213","OBJECT_ID":"2026-030P","EPOCH":"2026-03-15T06:42:37.913472","MEAN_MOTION":15.32672625,"ECCENTRICITY":0.00150359,"INCLINATION":51.8806,"RA_OF_ASC_NODE":192.7706,"ARG_OF_PERICENTER":83.5378,"MEAN_ANOMALY":276.7319,"EPHEMERIS_TYPE":0,"CLASSIFICATION_TYPE":"U","NORAD_CAT_ID":67777,"ELEMENT_SET_NO":999,"REV_AT_EPOCH":594,"BSTAR":0.001006087,"MEAN_MOTION_DOT":0.00032088,"MEAN_MOTION_DDOT":0},{"OBJECT_NAME":"KUIPER-00214","OBJECT_ID":"2026-030Q","EPOCH":"2026-03-14T18:02:44.586816","MEAN_MOTION":15.37036937,"ECCENTRICITY":8.223e-5,"INCLINATION":51.8851,"RA_OF_ASC_NODE":194.5163,"ARG_OF_PERICENTER":341.0737,"MEAN_ANOMALY":19.022,"EPHEMERIS_TYPE":0,"CLASSIFICATION_TYPE":"U","NORAD_CAT_ID":67778,"ELEMENT_SET_NO":999,"REV_AT_EPOCH":587,"BSTAR":0.0017514132,"MEAN_MOTION_DOT":0.0006462,"MEAN_MOTION_DDOT":0},{"OBJECT_NAME":"KUIPER-00215","OBJECT_ID":"2026-030R","EPOCH":"2026-03-15T01:22:12.715104","MEAN_MOTION":15.34741015,"ECCENTRICITY":0.00111911,"INCLINATION":51.8865,"RA_OF_ASC_NODE":193.548,"ARG_OF_PERICENTER":78.172,"MEAN_ANOMALY":282.0521,"EPHEMERIS_TYPE":0,"CLASSIFICATION_TYPE":"U","NORAD_CAT_ID":67779,"ELEMENT_SET_NO":999,"REV_AT_EPOCH":591,"BSTAR":0.0016015235,"MEAN_MOTION_DOT":0.00054872,"MEAN_MOTION_DDOT":0},{"OBJECT_NAME":"KUIPER-00218","OBJECT_ID":"2026-030S","EPOCH":"2026-03-15T01:01:54.253920","MEAN_MOTION":15.35444013,"ECCENTRICITY":0.00072865,"INCLINATION":51.8836,"RA_OF_ASC_NODE":193.4556,"ARG_OF_PERICENTER":73.0271,"MEAN_ANOMALY":287.1513,"EPHEMERIS_TYPE":0,"CLASSIFICATION_TYPE":"U","NORAD_CAT_ID":67780,"ELEMENT_SET_NO":999,"REV_AT_EPOCH":591,"BSTAR":0.0012414289,"MEAN_MOTION_DOT":0.00043303,"MEAN_MOTION_DDOT":0}]
