KUIPER-00160            
1 67765U 26030B   26073.70968043  .00036683  00000+0  10408-2 0  9997
2 67765  51.8814 194.9672 0005429  67.8682 292.2880 15.35856017  5866
KUIPER-00177            
1 67766U 26030C   26074.25001157  .00070155  00000+0  26542-2 0  9991
2 67766  51.8849 192.3718 0002247  26.0987  60.2182 15.26298808  5842
KUIPER-00178            
1 67767U 26030D   26074.25001157  .00067091  00000+0  22564-2 0  9997
2 67767  51.8840 192.4934 0007732  62.9826 351.3794 15.30155975  5227
KUIPER-00180            
1 67768U 26030E   26073.76979694  .00021452  00000+0  73245-3 0  9997
2 67768  51.8800 195.3502 0015202  84.1385 276.1331 15.30156383  5869
KUIPER-00197            
1 67769U 26030F   26073.62984771  .00050615  00000+0  13978-2 0  9994
2 67769  51.8823 195.1916 0001986  53.1453 306.9715 15.36562596  5858
KUIPER-00198            
1 67770U 26030G   26073.63658809  .00062264  00000+0  17269-2 0  9997
2 67770  51.8807 195.2280 0003937  50.3575 309.7759 15.36331957  5853
KUIPER-00199            
1 67771U 26030H   26074.05931047  .00037526  00000+0  11055-2 0  9993
2 67771  51.8818 193.5503 0010865  78.9678 281.2529 15.34622904  5912
KUIPER-00200            
1 67772U 26030J   26073.74729516  .00068143  00000+0  18267-2 0  9996
2 67772  51.8816 194.4793 0001144 304.1973  55.8905 15.37354089  5871
KUIPER-00203            
1 67773U 26030K   26074.25001157  .00042594  00000+0  28535-2 0  9999
2 67773  51.8900 194.3738 0011677  80.9606  59.1962 15.06425306  4504
KUIPER-00205            
1 67774U 26030L   26073.63039423  .00027018  00000+0  75106-3 0  9999
2 67774  51.8809 195.1897 0003676  35.8019 324.3214 15.36657590  5856
KUIPER-00208            
1 67775U 26030M   26073.49900304  .00035945  00000+0  11437-2 0  9993
2 67775  51.8829 196.5494 0015895  71.7459 288.5253 15.32134028  5823
KUIPER-00209            
1 67776U 26030N   26073.90924210 -.00008016  00000+0 -26262-3 0  9996
2 67776  51.8825 194.7882 0012859  82.6551 277.5894 15.29583110  5883
KUIPER-00213            
1 67777U 26030P   26074.27960548  .00032088  00000+0  10061-2 0  9995
2 67777  51.8806 192.7706 0015035  83.5378 276.7319 15.32672625  5946
KUIPER-00214            
1 67778U 26030Q   26073.75190494  .00064620  00000+0  17514-2 0  9990
2 67778  51.8851 194.5163 0000822 341.0737  19.0220 15.37036937  5879
KUIPER-00215            
1 67779U 26030R   26074.05709161  .00054872  00000+0  16015-2 0  9995
2 67779  51.8865 193.5480 0011191  78.1720 282.0521 15.34741015  5915
KUIPER-00218            
1 67780U 26030S   26074.04298905  .00043303  00000+0  12414-2 0  9991
2 67780  51.8836 193.4556 0007286  73.0271 287.1513 15.35444013  5919
